FENGYUN 3D              
1 43010U 17072A   26197.18291280  .00000293  00000+0  16038-3 0  9995
2 43010  99.0141 172.1320 0001489  12.1553 347.9658 14.19745893449100
NOAA 20 (JPSS-1)        
1 43013U 17073A   26197.11215785 -.00000003  00000+0  19406-4 0  9991
2 43013  98.7772 136.3185 0001421 123.7761 236.3550 14.19516495448572
GOES 17                 
1 43226U 18022A   26197.10952499 -.00000194  00000+0  00000+0 0  9997
2 43226   1.0093  85.2429 0000565  77.2080  81.4273  1.00270974 30718
SENTINEL-3B             
1 43437U 18039A   26197.15333610  .00000048  00000+0  38025-4 0  9992
2 43437  98.6236 264.2680 0001163 119.6874 240.4422 14.26736520428257
FENGYUN 2H              
1 43491U 18050A   26197.15739200 -.00000139  00000+0  00000+0 0  9999
2 43491   3.1035  78.7266 0002317 134.3526 216.6914  1.00267029 29724
METOP-C                 
1 43689U 18087A   26196.57486992  .00000053  00000+0  44045-4 0  9996
2 43689  98.6630 255.6574 0002216  93.2289 266.9142 14.21519167398863
GEO-KOMPSAT-2A          
1 43823U 18100A   26197.06503198 -.00000355  00000+0  00000+0 0  9999
2 43823   0.0352 176.3215 0001933 286.3135 342.9231  1.00268332 27919
METEOR-M2 2             
1 44387U 19038A   26197.18601309  .00000010  00000+0  24340-4 0  9997
2 44387  98.9154 184.9018 0000692   2.4118 357.7063 14.24372841365425
ARKTIKA-M 1             
1 47719U 21016A   26195.40739072 -.00000301  00000+0  00000+0 0  9996
2 47719  63.2662  53.6722 7297332 270.0591  14.4994  2.00611590 39330
FENGYUN 3E              
1 49008U 21062A   26197.23404714 -.00000104  00000+0 -28075-4 0  9994
2 49008  98.7494 200.3190 0002249  37.0421 323.0911 14.19905997260701
GOES 18                 
1 51850U 22021A   26197.10018947  .00000086  00000+0  00000+0 0  9993
2 51850   0.0174 122.2673 0000421  55.0677  15.6609  1.00271202  6887
NOAA 21 (JPSS-2)        
1 54234U 22150A   26197.14444061  .00000017  00000+0  28938-4 0  9998
2 54234  98.7059 135.4473 0002846 102.8825 257.2669 14.19541134190652
METEOSAT-12 (MTG-I1)    
1 54743U 22170C   26197.12731769 -.00000019  00000+0  00000+0 0  9995
2 54743   0.7261  19.8731 0003845  81.8135 237.7772  1.00267951 13264
TIANMU-1 03             
1 55973U 23039A   26197.14476233  .00008450  00000+0  16321-3 0  9993
2 55973  97.5239  12.2663 0002503  24.1905 335.9462 15.48059242185317
TIANMU-1 04             
1 55974U 23039B   26197.18741677  .00009086  00000+0  17157-3 0  9999
2 55974  97.5179  11.4667 0002929   8.9983 351.1320 15.48687257185332
TIANMU-1 05             
1 55975U 23039C   26197.19159125  .00008732  00000+0  16902-3 0  9996
2 55975  97.5224  11.9190 0002873  43.1064 317.0410 15.47985481185306
TIANMU-1 06             
1 55976U 23039D   26197.19266706  .00008893  00000+0  16856-3 0  9997
2 55976  97.5232  12.5854 0002966  34.1101 326.0340 15.48583864185330
FENGYUN 3G              
1 56232U 23055A   26197.18449177  .00013097  00000+0  20655-3 0  9999
2 56232  49.9907 196.4676 0007014  60.5511 299.6156 15.53816521184511
METEOR-M2 3             
1 57166U 23091A   26197.18703524 -.00000013  00000+0  13151-4 0  9994
2 57166  98.6068 251.5696 0005140  88.0651 272.1116 14.24048994158645
TIANMU-1 07             
1 57399U 23101A   26197.20444047  .00003292  00000+0  11547-3 0  9996
2 57399  97.2576 247.2096 0003689  62.7168 297.4448 15.30122229166083
TIANMU-1 08             
1 57400U 23101B   26197.17100517  .00003193  00000+0  11205-3 0  9997
2 57400  97.2564 246.9434 0004523  43.7205 316.4394 15.30125369166073
TIANMU-1 09             
1 57401U 23101C   26197.15374095  .00003383  00000+0  11843-3 0  9999
2 57401  97.2521 246.3277 0004307  62.7736 297.3944 15.30166880166077
TIANMU-1 10             
1 57402U 23101D   26197.18729940  .00003318  00000+0  11630-3 0  9998
2 57402  97.2602 247.4405 0005577  51.6255 308.5486 15.30140194166072
FENGYUN 3F              
1 57490U 23111A   26197.14679902  .00000022  00000+0  30691-4 0  9992
2 57490  98.6825 266.6142 0001252  76.1325 283.9991 14.19943519152977
ARKTIKA-M 2             
1 58584U 23198A   26196.17500106  .00000129  00000+0  00000+0 0  9997
2 58584  63.2178 151.2342 6910736 267.3397  18.7345  2.00608092 18886
TIANMU-1 11             
1 58645U 23205A   26197.14617378  .00002693  00000+0  10349-3 0  9991
2 58645  97.3440 218.2529 0006817 257.7883 102.2593 15.27268947141940
TIANMU-1 12             
1 58646U 23205B   26197.18420446  .00002830  00000+0  10918-3 0  9999
2 58646  97.3429 218.0370 0005875 230.1023 129.9700 15.27100919141933
TIANMU-1 13             
1 58647U 23205C   26197.21765096  .00002798  00000+0  10802-3 0  9992
2 58647  97.3456 218.3502 0005904 208.1576 151.9345 15.27093865141936
TIANMU-1 14             
1 58648U 23205D   26197.20201494  .00002673  00000+0  10317-3 0  9992
2 58648  97.3393 217.4939 0006521 215.9564 144.1237 15.27137402141930
TIANMU-1 19             
1 58660U 23208A   26197.16071819  .00004308  00000+0  14206-3 0  9998
2 58660  97.4531 313.6201 0004684 194.7565 165.3541 15.31984029141767
TIANMU-1 20             
1 58661U 23208B   26197.17604443  .00004396  00000+0  13963-3 0  9991
2 58661  97.4473 314.3011 0006428 208.2034 151.8861 15.33173240141863
