OBJECT_NAME,OBJECT_ID,EPOCH,MEAN_MOTION,ECCENTRICITY,INCLINATION,RA_OF_ASC_NODE,ARG_OF_PERICENTER,MEAN_ANOMALY,EPHEMERIS_TYPE,CLASSIFICATION_TYPE,NORAD_CAT_ID,ELEMENT_SET_NO,REV_AT_EPOCH,BSTAR,MEAN_MOTION_DOT,MEAN_MOTION_DDOT
FENGYUN 3D,2017-072A,2026-07-16T04:23:23.665920,14.19745893,.0001489,99.0141,172.1320,12.1553,347.9658,0,U,43010,999,44910,.16038E-3,.293E-5,0
NOAA 20 (JPSS-1),2017-073A,2026-07-16T02:41:30.438240,14.19516495,.0001421,98.7772,136.3185,123.7761,236.3550,0,U,43013,999,44857,.19406E-4,-.3E-7,0
GOES 17,2018-022A,2026-07-16T02:37:42.959136,1.00270974,.0000565,1.0093,85.2429,77.2080,81.4273,0,U,43226,999,3071,0,-.194E-5,0
SENTINEL-3B,2018-039A,2026-07-16T03:40:48.239040,14.26736520,.0001163,98.6236,264.2680,119.6874,240.4422,0,U,43437,999,42825,.38025E-4,.48E-6,0
FENGYUN 2H,2018-050A,2026-07-16T03:46:38.668800,1.00267029,.0002317,3.1035,78.7266,134.3526,216.6914,0,U,43491,999,2972,0,-.139E-5,0
METOP-C,2018-087A,2026-07-15T13:47:48.761088,14.21519167,.0002216,98.6630,255.6574,93.2289,266.9142,0,U,43689,999,39886,.44045E-4,.53E-6,0
GEO-KOMPSAT-2A,2018-100A,2026-07-16T01:33:38.763072,1.00268332,.0001933,0.0352,176.3215,286.3135,342.9231,0,U,43823,999,2791,0,-.355E-5,0
METEOR-M2 2,2019-038A,2026-07-16T04:27:51.530976,14.24372841,.0000692,98.9154,184.9018,2.4118,357.7063,0,U,44387,999,36542,.2434E-4,.1E-6,0
ARKTIKA-M 1,2021-016A,2026-07-14T09:46:38.558208,2.00611590,.7297332,63.2662,53.6722,270.0591,14.4994,0,U,47719,999,3933,0,-.301E-5,0
FENGYUN 3E,2021-062A,2026-07-16T05:37:01.672896,14.19905997,.0002249,98.7494,200.3190,37.0421,323.0911,0,U,49008,999,26070,-.28075E-4,-.104E-5,0
GOES 18,2022-021A,2026-07-16T02:24:16.370208,1.00271202,.0000421,0.0174,122.2673,55.0677,15.6609,0,U,51850,999,688,0,.86E-6,0
NOAA 21 (JPSS-2),2022-150A,2026-07-16T03:27:59.668704,14.19541134,.0002846,98.7059,135.4473,102.8825,257.2669,0,U,54234,999,19065,.28938E-4,.17E-6,0
METEOSAT-12 (MTG-I1),2022-170C,2026-07-16T03:03:20.248416,1.00267951,.0003845,0.7261,19.8731,81.8135,237.7772,0,U,54743,999,1326,0,-.19E-6,0
TIANMU-1 03,2023-039A,2026-07-16T03:28:27.465312,15.48059242,.0002503,97.5239,12.2663,24.1905,335.9462,0,U,55973,999,18531,.16321E-3,.845E-4,0
TIANMU-1 04,2023-039B,2026-07-16T04:29:52.808928,15.48687257,.0002929,97.5179,11.4667,8.9983,351.1320,0,U,55974,999,18533,.17157E-3,.9086E-4,0
TIANMU-1 05,2023-039C,2026-07-16T04:35:53.484000,15.47985481,.0002873,97.5224,11.9190,43.1064,317.0410,0,U,55975,999,18530,.16902E-3,.8732E-4,0
TIANMU-1 06,2023-039D,2026-07-16T04:37:26.433984,15.48583864,.0002966,97.5232,12.5854,34.1101,326.0340,0,U,55976,999,18533,.16856E-3,.8893E-4,0
FENGYUN 3G,2023-055A,2026-07-16T04:25:40.088928,15.53816521,.0007014,49.9907,196.4676,60.5511,299.6156,0,U,56232,999,18451,.20655E-3,.13097E-3,0
METEOR-M2 3,2023-091A,2026-07-16T04:29:19.844736,14.24048994,.000514,98.6068,251.5696,88.0651,272.1116,0,U,57166,999,15864,.13151E-4,-.13E-6,0
TIANMU-1 07,2023-101A,2026-07-16T04:54:23.656608,15.30122229,.0003689,97.2576,247.2096,62.7168,297.4448,0,U,57399,999,16608,.11547E-3,.3292E-4,0
TIANMU-1 08,2023-101B,2026-07-16T04:06:14.846688,15.30125369,.0004523,97.2564,246.9434,43.7205,316.4394,0,U,57400,999,16607,.11205E-3,.3193E-4,0
TIANMU-1 09,2023-101C,2026-07-16T03:41:23.218080,15.30166880,.0004307,97.2521,246.3277,62.7736,297.3944,0,U,57401,999,16607,.11843E-3,.3383E-4,0
TIANMU-1 10,2023-101D,2026-07-16T04:29:42.668160,15.30140194,.0005577,97.2602,247.4405,51.6255,308.5486,0,U,57402,999,16607,.1163E-3,.3318E-4,0
FENGYUN 3F,2023-111A,2026-07-16T03:31:23.435328,14.19943519,.0001252,98.6825,266.6142,76.1325,283.9991,0,U,57490,999,15297,.30691E-4,.22E-6,0
ARKTIKA-M 2,2023-198A,2026-07-15T04:12:00.091584,2.00608092,.69107365,63.2178,151.2342,267.3397,18.7345,0,U,58584,999,1888,0,.129E-5,0
TIANMU-1 11,2023-205A,2026-07-16T03:30:29.414592,15.27268947,.0006817,97.3440,218.2529,257.7883,102.2593,0,U,58645,999,14194,.10349E-3,.2693E-4,0
TIANMU-1 12,2023-205B,2026-07-16T04:25:15.265344,15.27100919,.0005875,97.3429,218.0370,230.1023,129.9700,0,U,58646,999,14193,.10918E-3,.283E-4,0
TIANMU-1 13,2023-205C,2026-07-16T05:13:25.042944,15.27093865,.0005904,97.3456,218.3502,208.1576,151.9345,0,U,58647,999,14193,.10802E-3,.2798E-4,0
TIANMU-1 14,2023-205D,2026-07-16T04:50:54.090816,15.27137402,.0006521,97.3393,217.4939,215.9564,144.1237,0,U,58648,999,14193,.10317E-3,.2673E-4,0
TIANMU-1 19,2023-208A,2026-07-16T03:51:26.051616,15.31984029,.0004684,97.4531,313.6201,194.7565,165.3541,0,U,58660,999,14176,.14206E-3,.4308E-4,0
TIANMU-1 20,2023-208B,2026-07-16T04:13:30.238752,15.33173240,.0006428,97.4473,314.3011,208.2034,151.8861,0,U,58661,999,14186,.13963E-3,.4396E-4,0
